{"type": "FeatureCollection", "features": [ {"type": "Feature", "properties": {"norad_id": 33779, "name": "COSMOS 2251 DEB", "group": "cosmos-2251-debris", "lat": -58.81178128745278, "lon": 19.892614267390588, "alt_km": 656.949329283746, "timestamp": "2025-12-12T05:47:29.163843+00:00", "meta": {"OBJECT_NAME": "COSMOS 2251 DEB", "OBJECT_ID": "1993-036U", "EPOCH": "2025-12-11T20:48:57.053664", "MEAN_MOTION": 14.70416565, "ECCENTRICITY": 0.00170553, "INCLINATION": 74.045, "RA_OF_ASC_NODE": 172.414, "ARG_OF_PERICENTER": 205.9917, "MEAN_ANOMALY": 217.8136, "EPHEMERIS_TYPE": 0, "CLASSIFICATION_TYPE": "U", "NORAD_CAT_ID": 33779, "ELEMENT_SET_NO": 999, "REV_AT_EPOCH": 88515, "BSTAR": 0.0029068323, "MEAN_MOTION_DOT": 0.00017654, "MEAN_MOTION_DDOT": 0}, "tle": {"line1": "1 33779U 93036U   25345.86732701  .00017654  00000+0  29068-2 0  9992", "line2": "2 33779  74.0450 172.4140 0017055 205.9917 217.8136 14.70416565885155"}}, "geometry": {"type": "Point", "coordinates": [19.892614267390588, -58.81178128745278]}}, {"type": "Feature", "properties": {"norad_id": 33782, "name": "COSMOS 2251 DEB", "group": "cosmos-2251-debris", "lat": 54.07297361254754, "lon": -58.258759442145454, "alt_km": 747.5200557967491, "timestamp": "2025-12-12T05:47:29.163867+00:00", "meta": {"OBJECT_NAME": "COSMOS 2251 DEB", "OBJECT_ID": "1993-036X", "EPOCH": "2025-12-11T21:27:26.997408", "MEAN_MOTION": 14.40444727, "ECCENTRICITY": 0.00207351, "INCLINATION": 74.0338, "RA_OF_ASC_NODE": 279.1106, "ARG_OF_PERICENTER": 343.9072, "MEAN_ANOMALY": 73.3448, "EPHEMERIS_TYPE": 0, "CLASSIFICATION_TYPE": "U", "NORAD_CAT_ID": 33782, "ELEMENT_SET_NO": 999, "REV_AT_EPOCH": 88114, "BSTAR": 0.00072723339, "MEAN_MOTION_DOT": 2.291e-05, "MEAN_MOTION_DDOT": 0}, "tle": {"line1": "1 33782U 93036X   25345.89406247  .00002291  00000+0  72723-3 0  9990", "line2": "2 33782  74.0338 279.1106 0020735 343.9072  73.3448 14.40444727881149"}}, "geometry": {"type": "Point", "coordinates": [-58.258759442145454, 54.07297361254754]}}, {"type": "Feature", "properties": {"norad_id": 33785, "name": "COSMOS 2251 DEB", "group": "cosmos-2251-debris", "lat": -34.06860951219057, "lon": -107.80652932272547, "alt_km": 678.1844911833041, "timestamp": "2025-12-12T05:47:29.163880+00:00", "meta": {"OBJECT_NAME": "COSMOS 2251 DEB", "OBJECT_ID": "1993-036AA", "EPOCH": "2025-12-11T16:28:47.430912", "MEAN_MOTION": 14.70451506, "ECCENTRICITY": 0.00221986, "INCLINATION": 73.8671, "RA_OF_ASC_NODE": 61.9922, "ARG_OF_PERICENTER": 1.6751, "MEAN_ANOMALY": 159.1199, "EPHEMERIS_TYPE": 0, "CLASSIFICATION_TYPE": "U", "NORAD_CAT_ID": 33785, "ELEMENT_SET_NO": 999, "REV_AT_EPOCH": 88491, "BSTAR": 0.003133433, "MEAN_MOTION_DOT": 0.00019081, "MEAN_MOTION_DDOT": 0}, "tle": {"line1": "1 33785U 93036AA  25345.68666008  .00019081  00000+0  31334-2 0  9990", "line2": "2 33785  73.8671  61.9922 0022198   1.6751 159.1199 14.70451506884919"}}, "geometry": {"type": "Point", "coordinates": [-107.80652932272547, -34.06860951219057]}}, {"type": "Feature", "properties": {"norad_id": 33789, "name": "COSMOS 2251 DEB", "group": "cosmos-2251-debris", "lat": 0.8620276869768719, "lon": -91.99427327140008, "alt_km": 775.3791680945915, "timestamp": "2025-12-12T05:47:29.163891+00:00", "meta": {"OBJECT_NAME": "COSMOS 2251 DEB", "OBJECT_ID": "1993-036AE", "EPOCH": "2025-12-12T00:18:04.281984", "MEAN_MOTION": 13.8879373, "ECCENTRICITY": 0.02402188, "INCLINATION": 74.0648, "RA_OF_ASC_NODE": 88.6401, "ARG_OF_PERICENTER": 204.436, "MEAN_ANOMALY": 272.417, "EPHEMERIS_TYPE": 0, "CLASSIFICATION_TYPE": "U", "NORAD_CAT_ID": 33789, "ELEMENT_SET_NO": 999, "REV_AT_EPOCH": 85085, "BSTAR": 0.0012400772, "MEAN_MOTION_DOT": 1.862e-05, "MEAN_MOTION_DDOT": 0}, "tle": {"line1": "1 33789U 93036AE  25346.01254956  .00001862  00000+0  12401-2 0  9999", "line2": "2 33789  74.0648  88.6401 0240218 204.4360 272.4170 13.88793730850852"}}, "geometry": {"type": "Point", "coordinates": [-91.99427327140008, 0.8620276869768719]}}, {"type": "Feature", "properties": {"norad_id": 33791, "name": "COSMOS 2251 DEB", "group": "cosmos-2251-debris", "lat": -41.23246950090906, "lon": 24.106326956331085, "alt_km": 750.9763918262161, "timestamp": "2025-12-12T05:47:29.163901+00:00", "meta": {"OBJECT_NAME": "COSMOS 2251 DEB", "OBJECT_ID": "1993-036AG", "EPOCH": "2025-12-11T12:10:20.275968", "MEAN_MOTION": 14.43114527, "ECCENTRICITY": 0.0030544, "INCLINATION": 74.1753, "RA_OF_ASC_NODE": 39.8508, "ARG_OF_PERICENTER": 237.345, "MEAN_ANOMALY": 226.7416, "EPHEMERIS_TYPE": 0, "CLASSIFICATION_TYPE": "U", "NORAD_CAT_ID": 33791, "ELEMENT_SET_NO": 999, "REV_AT_EPOCH": 88034, "BSTAR": 0.0013263828, "MEAN_MOTION_DOT": 4.454e-05, "MEAN_MOTION_DDOT": 0}, "tle": {"line1": "1 33791U 93036AG  25345.50717912  .00004454  00000+0  13264-2 0  9999", "line2": "2 33791  74.1753  39.8508 0030544 237.3450 226.7416 14.43114527880348"}}, "geometry": {"type": "Point", "coordinates": [24.106326956331085, -41.23246950090906]}}, {"type": "Feature", "properties": {"norad_id": 33792, "name": "COSMOS 2251 DEB", "group": "cosmos-2251-debris", "lat": -3.306194473413348, "lon": 167.0962578507241, "alt_km": 1298.1625844592909, "timestamp": "2025-12-12T05:47:29.163912+00:00", "meta": {"OBJECT_NAME": "COSMOS 2251 DEB", "OBJECT_ID": "1993-036AH", "EPOCH": "2025-12-11T23:39:56.382336", "MEAN_MOTION": 13.45820625, "ECCENTRICITY": 0.04270366, "INCLINATION": 73.9009, "RA_OF_ASC_NODE": 346.5478, "ARG_OF_PERICENTER": 51.3398, "MEAN_ANOMALY": 332.1261, "EPHEMERIS_TYPE": 0, "CLASSIFICATION_TYPE": "U", "NORAD_CAT_ID": 33792, "ELEMENT_SET_NO": 999, "REV_AT_EPOCH": 82432, "BSTAR": 0.0010873901, "MEAN_MOTION_DOT": 1.107e-05, "MEAN_MOTION_DDOT": 0}, "tle": {"line1": "1 33792U 93036AH  25345.98606924  .00001107  00000+0  10874-2 0  9998", "line2": "2 33792  73.9009 346.5478 0427036  51.3398 332.1261 13.45820625824325"}}, "geometry": {"type": "Point", "coordinates": [167.0962578507241, -3.306194473413348]}}, {"type": "Feature", "properties": {"norad_id": 33793, "name": "COSMOS 2251 DEB", "group": "cosmos-2251-debris", "lat": -44.87194377146406, "lon": -12.556821075225168, "alt_km": 789.6518103266708, "timestamp": "2025-12-12T05:47:29.163922+00:00", "meta": {"OBJECT_NAME": "COSMOS 2251 DEB", "OBJECT_ID": "1993-036AJ", "EPOCH": "2025-12-11T20:52:37.221600", "MEAN_MOTION": 14.27717805, "ECCENTRICITY": 0.00784863, "INCLINATION": 73.9807, "RA_OF_ASC_NODE": 151.4986, "ARG_OF_PERICENTER": 301.7685, "MEAN_ANOMALY": 177.9026, "EPHEMERIS_TYPE": 0, "CLASSIFICATION_TYPE": "U", "NORAD_CAT_ID": 33793, "ELEMENT_SET_NO": 999, "REV_AT_EPOCH": 87194, "BSTAR": 0.0010874682, "MEAN_MOTION_DOT": 2.747e-05, "MEAN_MOTION_DDOT": 0}, "tle": {"line1": "1 33793U 93036AJ  25345.86987525  .00002747  00000+0  10875-2 0  9997", "line2": "2 33793  73.9807 151.4986 0078486 301.7685 177.9026 14.27717805871941"}}, "geometry": {"type": "Point", "coordinates": [-12.556821075225168, -44.87194377146406]}}, {"type": "Feature", "properties": {"norad_id": 33795, "name": "COSMOS 2251 DEB", "group": "cosmos-2251-debris", "lat": 32.95436236678724, "lon": 88.45779472879454, "alt_km": 560.7362302354513, "timestamp": "2025-12-12T05:47:29.163933+00:00", "meta": {"OBJECT_NAME": "COSMOS 2251 DEB", "OBJECT_ID": "1993-036AL", "EPOCH": "2025-12-11T09:11:54.284352", "MEAN_MOTION": 15.05443886, "ECCENTRICITY": 0.00316691, "INCLINATION": 74.0321, "RA_OF_ASC_NODE": 79.5186, "ARG_OF_PERICENTER": 163.3792, "MEAN_ANOMALY": 263.1079, "EPHEMERIS_TYPE": 0, "CLASSIFICATION_TYPE": "U", "NORAD_CAT_ID": 33795, "ELEMENT_SET_NO": 999, "REV_AT_EPOCH": 90001, "BSTAR": 0.0026255739, "MEAN_MOTION_DOT": 0.00038301, "MEAN_MOTION_DDOT": 0}, "tle": {"line1": "1 33795U 93036AL  25345.38326718  .00038301  00000+0  26256-2 0  9992", "line2": "2 33795  74.0321  79.5186 0031669 163.3792 263.1079 15.05443886900010"}}, "geometry": {"type": "Point", "coordinates": [88.45779472879454, 32.95436236678724]}}, {"type": "Feature", "properties": {"norad_id": 33797, "name": "COSMOS 2251 DEB", "group": "cosmos-2251-debris", "lat": -56.53557129645021, "lon": 10.265989056182695, "alt_km": 749.7501747624901, "timestamp": "2025-12-12T05:47:29.163943+00:00", "meta": {"OBJECT_NAME": "COSMOS 2251 DEB", "OBJECT_ID": "1993-036AN", "EPOCH": "2025-12-11T14:17:06.436032", "MEAN_MOTION": 14.57841143, "ECCENTRICITY": 0.00607441, "INCLINATION": 74.0478, "RA_OF_ASC_NODE": 37.1342, "ARG_OF_PERICENTER": 125.3903, "MEAN_ANOMALY": 24.9586, "EPHEMERIS_TYPE": 0, "CLASSIFICATION_TYPE": "U", "NORAD_CAT_ID": 33797, "ELEMENT_SET_NO": 999, "REV_AT_EPOCH": 88968, "BSTAR": 0.00064956369, "MEAN_MOTION_DOT": 3.022e-05, "MEAN_MOTION_DDOT": 0}, "tle": {"line1": "1 33797U 93036AN  25345.59521338  .00003022  00000+0  64956-3 0  9994", "line2": "2 33797  74.0478  37.1342 0060744 125.3903  24.9586 14.57841143889686"}}, "geometry": {"type": "Point", "coordinates": [10.265989056182695, -56.53557129645021]}}, {"type": "Feature", "properties": {"norad_id": 33798, "name": "COSMOS 2251 DEB", "group": "cosmos-2251-debris", "lat": -21.204490036987426, "lon": -36.78667348147159, "alt_km": 711.2620412962406, "timestamp": "2025-12-12T05:47:29.163953+00:00", "meta": {"OBJECT_NAME": "COSMOS 2251 DEB", "OBJECT_ID": "1993-036AP", "EPOCH": "2025-12-11T21:08:42.243936", "MEAN_MOTION": 14.44612681, "ECCENTRICITY": 0.00924908, "INCLINATION": 74.028, "RA_OF_ASC_NODE": 137.5046, "ARG_OF_PERICENTER": 259.0614, "MEAN_ANOMALY": 230.9676, "EPHEMERIS_TYPE": 0, "CLASSIFICATION_TYPE": "U", "NORAD_CAT_ID": 33798, "ELEMENT_SET_NO": 999, "REV_AT_EPOCH": 88581, "BSTAR": 0.00027031102, "MEAN_MOTION_DOT": 9.56e-06, "MEAN_MOTION_DDOT": 0}, "tle": {"line1": "1 33798U 93036AP  25345.88104449  .00000956  00000+0  27031-3 0  9993", "line2": "2 33798  74.0280 137.5046 0092490 259.0614 230.9676 14.44612681885810"}}, "geometry": {"type": "Point", "coordinates": [-36.78667348147159, -21.204490036987426]}}]}